[{"OBJECT_NAME":"STARLINK-30068","OBJECT_ID":"2023-067L","EPOCH":"2026-03-09T22:00:01.999584","MEAN_MOTION":15.26725268,"ECCENTRICITY":0.00017078,"INCLINATION":43.0002,"RA_OF_ASC_NODE":258.5612,"ARG_OF_PERICENTER":287.215,"MEAN_ANOMALY":82.587,"EPHEMERIS_TYPE":0,"CLASSIFICATION_TYPE":"U","NORAD_CAT_ID":56698,"ELEMENT_SET_NO":999,"REV_AT_EPOCH":578,"BSTAR":0.0021438096,"MEAN_MOTION_DOT":0.00057671,"MEAN_MOTION_DDOT":0},{"OBJECT_NAME":"BRO-11","OBJECT_ID":"2023-174J","EPOCH":"2026-03-09T23:01:09.890400","MEAN_MOTION":15.26267731,"ECCENTRICITY":0.00104518,"INCLINATION":97.3961,"RA_OF_ASC_NODE":146.7679,"ARG_OF_PERICENTER":189.9892,"MEAN_ANOMALY":170.1141,"EPHEMERIS_TYPE":0,"CLASSIFICATION_TYPE":"U","NORAD_CAT_ID":58264,"ELEMENT_SET_NO":999,"REV_AT_EPOCH":12961,"BSTAR":0.00032296323,"MEAN_MOTION_DOT":8.313e-5,"MEAN_MOTION_DDOT":0}]
